{"fetched_at":"2026-07-14T06:35:02.392Z","source":"https://celestrak.org/NORAD/elements/gp.php?NAME=RCM&FORMAT=JSON","constellation":"rcm","records":[{"OBJECT_NAME":"RCM-1","OBJECT_ID":"2019-033A","EPOCH":"2026-07-13T21:42:54.084096","CLASSIFICATION_TYPE":"U","MEAN_MOTION":14.92585231,"ECCENTRICITY":0.0001525,"INCLINATION":97.7603,"RA_OF_ASC_NODE":201.974,"ARG_OF_PERICENTER":92.8426,"MEAN_ANOMALY":23.1361,"EPHEMERIS_TYPE":0,"NORAD_CAT_ID":44322,"ELEMENT_SET_NO":999,"REV_AT_EPOCH":38606,"BSTAR":0.000036268,"MEAN_MOTION_DOT":0.00000317,"MEAN_MOTION_DDOT":0},{"OBJECT_NAME":"RCM-3","OBJECT_ID":"2019-033B","EPOCH":"2026-07-13T21:44:23.642880","CLASSIFICATION_TYPE":"U","MEAN_MOTION":14.92590621,"ECCENTRICITY":0.0001512,"INCLINATION":97.7602,"RA_OF_ASC_NODE":202.0691,"ARG_OF_PERICENTER":90.7234,"MEAN_ANOMALY":269.4158,"EPHEMERIS_TYPE":0,"NORAD_CAT_ID":44323,"ELEMENT_SET_NO":999,"REV_AT_EPOCH":38608,"BSTAR":0.000018737,"MEAN_MOTION_DOT":0.00000137,"MEAN_MOTION_DDOT":0},{"OBJECT_NAME":"RCM-2","OBJECT_ID":"2019-033C","EPOCH":"2026-07-13T20:39:50.181408","CLASSIFICATION_TYPE":"U","MEAN_MOTION":14.92585854,"ECCENTRICITY":0.0001529,"INCLINATION":97.7602,"RA_OF_ASC_NODE":201.9755,"ARG_OF_PERICENTER":90.4366,"MEAN_ANOMALY":269.7028,"EPHEMERIS_TYPE":0,"NORAD_CAT_ID":44324,"ELEMENT_SET_NO":999,"REV_AT_EPOCH":38606,"BSTAR":-0.000016396,"MEAN_MOTION_DOT":-0.00000224,"MEAN_MOTION_DDOT":0}]}
