RCM-1                   
1 44322U 19033A   26194.90479264  .00000317  00000+0  36268-4 0  9993
2 44322  97.7603 201.9740 0001525  92.8426  23.1361 14.92585231386065
RCM-3                   
1 44323U 19033B   26194.90582920  .00000137  00000+0  18737-4 0  9999
2 44323  97.7602 202.0691 0001512  90.7234 269.4158 14.92590621386082
RCM-2                   
1 44324U 19033C   26194.86099747 -.00000224  00000+0 -16396-4 0  9993
2 44324  97.7602 201.9755 0001529  90.4366 269.7028 14.92585854386062
